{
  "type": "FeatureCollection",
  "features": [
    {
      "type": "Feature",
      "properties": {
        "norad_id": 37836,
        "name": "EUTELSAT 16A",
        "group": "eutelsat",
        "lat": 0.07043564211085103,
        "lon": 60.23326799737845,
        "alt_km": 35806.61869149157,
        "timestamp": "2025-12-24T20:42:20.690999+00:00",
        "meta_object_name": "EUTELSAT 16A",
        "meta_object_id": "2011-057A",
        "meta_epoch": "2025-12-24T06:19:36.564960",
        "meta_mean_motion": 1.00270821,
        "meta_eccentricity": 0.00058449,
        "meta_inclination": 0.0567,
        "meta_ra_of_asc_node": 347.0894,
        "meta_arg_of_pericenter": 287.8532,
        "meta_mean_anomaly": 288.9864,
        "meta_ephemeris_type": 0,
        "meta_classification_type": "U",
        "meta_norad_cat_id": 37836,
        "meta_element_set_no": 999,
        "meta_rev_at_epoch": 557,
        "meta_bstar": 0,
        "meta_mean_motion_dot": 1.25e-06,
        "meta_mean_motion_ddot": 0,
        "tle_line1": "1 37836U 11057A   25358.26361765  .00000125  00000+0  00000+0 0  9996",
        "tle_line2": "2 37836   0.0567 347.0894 0005844 287.8532 288.9864  1.00270821  5571"
      },
      "geometry": {
        "type": "Point",
        "coordinates": [
          60.23326799737845,
          0.07043564211085103
        ]
      }
    },
    {
      "type": "Feature",
      "properties": {
        "norad_id": 38992,
        "name": "EUTELSAT 21B",
        "group": "eutelsat",
        "lat": 0.08214598949920393,
        "lon": 65.8084794724483,
        "alt_km": 35797.88679278667,
        "timestamp": "2025-12-24T20:42:20.691011+00:00",
        "meta_object_name": "EUTELSAT 21B",
        "meta_object_id": "2012-062B",
        "meta_epoch": "2025-12-24T02:22:38.584416",
        "meta_mean_motion": 1.00270674,
        "meta_eccentricity": 0.00032472,
        "meta_inclination": 0.0663,
        "meta_ra_of_asc_node": 347.5657,
        "meta_arg_of_pericenter": 290.7668,
        "meta_mean_anomaly": 231.7869,
        "meta_ephemeris_type": 0,
        "meta_classification_type": "U",
        "meta_norad_cat_id": 38992,
        "meta_element_set_no": 999,
        "meta_rev_at_epoch": 4807,
        "meta_bstar": 0,
        "meta_mean_motion_dot": 1.51e-06,
        "meta_mean_motion_ddot": 0,
        "tle_line1": "1 38992U 12062B   25358.09905769  .00000151  00000+0  00000+0 0  9995",
        "tle_line2": "2 38992   0.0663 347.5657 0003247 290.7668 231.7869  1.00270674 48071"
      },
      "geometry": {
        "type": "Point",
        "coordinates": [
          65.8084794724483,
          0.08214598949920393
        ]
      }
    },
    {
      "type": "Feature",
      "properties": {
        "norad_id": 39020,
        "name": "EUTELSAT 70B",
        "group": "eutelsat",
        "lat": 0.0676216445930622,
        "lon": 114.67284946313279,
        "alt_km": 35799.70829248366,
        "timestamp": "2025-12-24T20:42:20.691023+00:00",
        "meta_object_name": "EUTELSAT 70B",
        "meta_object_id": "2012-069A",
        "meta_epoch": "2025-12-24T04:52:29.909280",
        "meta_mean_motion": 1.00271791,
        "meta_eccentricity": 0.00042241,
        "meta_inclination": 0.0624,
        "meta_ra_of_asc_node": 345.4216,
        "meta_arg_of_pericenter": 268.89,
        "meta_mean_anomaly": 342.2873,
        "meta_ephemeris_type": 0,
        "meta_classification_type": "U",
        "meta_norad_cat_id": 39020,
        "meta_element_set_no": 999,
        "meta_rev_at_epoch": 4775,
        "meta_bstar": 0,
        "meta_mean_motion_dot": -2.2e-07,
        "meta_mean_motion_ddot": 0,
        "tle_line1": "1 39020U 12069A   25358.20312395 -.00000022  00000+0  00000+0 0  9993",
        "tle_line2": "2 39020   0.0624 345.4216 0004224 268.8900 342.2873  1.00271791 47758"
      },
      "geometry": {
        "type": "Point",
        "coordinates": [
          114.67284946313279,
          0.0676216445930622
        ]
      }
    },
    {
      "type": "Feature",
      "properties": {
        "norad_id": 39122,
        "name": "EUTELSAT 117 WEST A",
        "group": "eutelsat",
        "lat": -0.02487208919917417,
        "lon": -72.57623148404075,
        "alt_km": 35775.13190677362,
        "timestamp": "2025-12-24T20:42:20.691036+00:00",
        "meta_object_name": "EUTELSAT 117 WEST A",
        "meta_object_id": "2013-012A",
        "meta_epoch": "2025-12-24T05:59:38.935680",
        "meta_mean_motion": 1.00270856,
        "meta_eccentricity": 0.00027022,
        "meta_inclination": 0.0212,
        "meta_ra_of_asc_node": 315.8124,
        "meta_arg_of_pericenter": 319.5212,
        "meta_mean_anomaly": 150.8139,
        "meta_ephemeris_type": 0,
        "meta_classification_type": "U",
        "meta_norad_cat_id": 39122,
        "meta_element_set_no": 999,
        "meta_rev_at_epoch": 4667,
        "meta_bstar": 0,
        "meta_mean_motion_dot": 8e-08,
        "meta_mean_motion_ddot": 0,
        "tle_line1": "1 39122U 13012A   25358.24975620  .00000008  00000+0  00000+0 0  9998",
        "tle_line2": "2 39122   0.0212 315.8124 0002702 319.5212 150.8139  1.00270856 46671"
      },
      "geometry": {
        "type": "Point",
        "coordinates": [
          -72.57623148404075,
          -0.02487208919917417
        ]
      }
    },
    {
      "type": "Feature",
      "properties": {
        "norad_id": 39163,
        "name": "EUTELSAT 7B",
        "group": "eutelsat",
        "lat": 0.05963629872714489,
        "lon": 51.25559452814886,
        "alt_km": 35785.79484665139,
        "timestamp": "2025-12-24T20:42:20.691048+00:00",
        "meta_object_name": "EUTELSAT 7B",
        "meta_object_id": "2013-022A",
        "meta_epoch": "2025-12-24T06:17:06.804384",
        "meta_mean_motion": 1.00271515,
        "meta_eccentricity": 0.00045642,
        "meta_inclination": 0.0658,
        "meta_ra_of_asc_node": 7.5423,
        "meta_arg_of_pericenter": 314.8563,
        "meta_mean_anomaly": 231.9115,
        "meta_ephemeris_type": 0,
        "meta_classification_type": "U",
        "meta_norad_cat_id": 39163,
        "meta_element_set_no": 999,
        "meta_rev_at_epoch": 4619,
        "meta_bstar": 0,
        "meta_mean_motion_dot": 6.9e-07,
        "meta_mean_motion_ddot": 0,
        "tle_line1": "1 39163U 13022A   25358.26188431  .00000069  00000+0  00000+0 0  9999",
        "tle_line2": "2 39163   0.0658   7.5423 0004564 314.8563 231.9115  1.00271515 46197"
      },
      "geometry": {
        "type": "Point",
        "coordinates": [
          51.25559452814886,
          0.05963629872714489
        ]
      }
    },
    {
      "type": "Feature",
      "properties": {
        "norad_id": 39612,
        "name": "EXPRESS-AT1",
        "group": "eutelsat",
        "lat": 0.012758198991709727,
        "lon": 100.20503067487832,
        "alt_km": 35782.5337378095,
        "timestamp": "2025-12-24T20:42:20.691071+00:00",
        "meta_object_name": "EXPRESS-AT1",
        "meta_object_id": "2014-010A",
        "meta_epoch": "2025-12-24T02:18:38.733696",
        "meta_mean_motion": 1.00271168,
        "meta_eccentricity": 9.11e-05,
        "meta_inclination": 0.0142,
        "meta_ra_of_asc_node": 288.2114,
        "meta_arg_of_pericenter": 190.815,
        "meta_mean_anomaly": 64.5094,
        "meta_ephemeris_type": 0,
        "meta_classification_type": "U",
        "meta_norad_cat_id": 39612,
        "meta_element_set_no": 999,
        "meta_rev_at_epoch": 4306,
        "meta_bstar": 0,
        "meta_mean_motion_dot": 1e-06,
        "meta_mean_motion_ddot": 0,
        "tle_line1": "1 39612U 14010A   25358.09628164  .00000100  00000+0  00000+0 0  9995",
        "tle_line2": "2 39612   0.0142 288.2114 0000911 190.8150  64.5094  1.00271168 43068"
      },
      "geometry": {
        "type": "Point",
        "coordinates": [
          100.20503067487832,
          0.012758198991709727
        ]
      }
    },
    {
      "type": "Feature",
      "properties": {
        "norad_id": 39613,
        "name": "EXPRESS-AT2",
        "group": "eutelsat",
        "lat": -0.010475892294084107,
        "lon": -175.94000486542654,
        "alt_km": 35786.94174131123,
        "timestamp": "2025-12-24T20:42:20.691097+00:00",
        "meta_object_name": "EXPRESS-AT2",
        "meta_object_id": "2014-010B",
        "meta_epoch": "2025-12-24T05:14:10.338144",
        "meta_mean_motion": 1.00273009,
        "meta_eccentricity": 0.00015262,
        "meta_inclination": 0.0153,
        "meta_ra_of_asc_node": 314.0505,
        "meta_arg_of_pericenter": 330.1441,
        "meta_mean_anomaly": 27.2081,
        "meta_ephemeris_type": 0,
        "meta_classification_type": "U",
        "meta_norad_cat_id": 39613,
        "meta_element_set_no": 999,
        "meta_rev_at_epoch": 4274,
        "meta_bstar": 0,
        "meta_mean_motion_dot": -2.6e-06,
        "meta_mean_motion_ddot": 0,
        "tle_line1": "1 39613U 14010B   25358.21817521 -.00000260  00000+0  00000+0 0  9995",
        "tle_line2": "2 39613   0.0153 314.0505 0001526 330.1441  27.2081  1.00273009 42740"
      },
      "geometry": {
        "type": "Point",
        "coordinates": [
          -175.94000486542654,
          -0.010475892294084107
        ]
      }
    }
  ]
}